IRIDIUM 113             
1 42803U 17039A   23301.57434411  .00000485  00000+0  16623-3 0  9992
2 42803  86.4020   4.4309 0002091  90.0981 270.0454 14.34218036333214
NORSAT 2                
1 42828U 17042D   23301.52222865  .00006761  00000+0  58621-3 0  9993
2 42828  97.3838 134.9024 0013235 125.8089 234.4366 14.97319587342544
TECHNOSAT               
1 42829U 17042E   23301.53853923  .00004390  00000+0  41078-3 0  9994
2 42829  97.3816 131.0542 0014178 133.0301 227.2110 14.94493526342404
FLYING LAPTOP           
1 42831U 17042G   23301.56543730  .00003001  00000+0  28842-3 0  9994
2 42831  97.3842 131.2856 0014207 133.6937 226.5464 14.93651470342395
WNISAT 1R               
1 42835U 17042L   23301.47952253  .00003167  00000+0  30306-3 0  9993
2 42835  97.3815 131.0847 0013685 131.5910 228.6486 14.93797764342400
LEMUR-2-GREENBERG       
1 42837U 17042N   23301.27837029  .00007885  00000+0  65024-3 0  9992
2 42837  97.3781 136.6939 0011869 121.3115 238.9272 14.99225915342691
LEMUR-2-FURIAUS         
1 42840U 17042R   23301.49991354  .00010254  00000+0  85513-3 0  9991
2 42840  97.3837 136.8119 0013062 117.2270 243.0287 14.98705965342681
CORVUS BC2              
1 42846U 17042X   23301.51315972  .00003420  00000+0  31269-3 0  9992
2 42846  97.3770 134.9192 0009978 117.8847 242.3387 14.95583492342645
CORVUS BC1              
1 42847U 17042Y   23301.49572063  .00005014  00000+0  45475-3 0  9991
2 42847  97.3762 135.2713 0009994 117.0199 243.2044 14.95701618342653
VRSS-2                  
1 42954U 17060A   23301.53157210  .00001492  00000+0  21489-3 0  9993
2 42954  97.7894   0.9239 0018258   0.7763 359.3474 14.77656417326105
MOHAMMED VI-A           
1 43005U 17070A   23301.53002477  .00001383  00000+0  20317-3 0  9994
2 43005  97.9435  11.6633 0001363  86.3184 273.8182 14.77061340321879
FENGYUN 3D              
1 43010U 17072A   23301.59484592  .00000192  00000+0  11326-3 0  9997
2 43010  98.8777 250.3237 0000630 318.4652  41.6476 14.19228071308426
CZ-4C R/B               
1 43012U 17072C   23301.43728062  .00000757  00000+0  16328-3 0  9999
2 43012  98.6315   2.2011 0125227 232.3515 126.6267 14.56921447316351
NOAA 20                 
1 43013U 17073A   23301.54914885  .00000136  00000+0  85314-4 0  9996
2 43013  98.7229 237.9315 0001549  95.8031 264.3321 14.19528971307890
MIRATA                  
1 43015U 17073C   23301.58081046  .00021571  00000+0  12550-2 0  9992
2 43015  97.6139 185.6604 0197641 329.1866  29.7872 14.97019179321417
MAKERSAT 0              
1 43016U 17073D   23301.44746081  .00014363  00000+0  91920-3 0  9995
2 43016  97.6100 182.6361 0216364 342.2327  17.1407 14.91332802321156
RADFXSAT (FOX-1B)       
1 43017U 17073E   23301.21116349  .00011983  00000+0  80623-3 0  9992
2 43017  97.6080 180.3239 0226036 349.7457   9.9187 14.88317013320950
EAGLESAT 1              
1 43018U 17073F   23301.57410913  .00025994  00000+0  15320-2 0  9994
2 43018  97.6151 185.9665 0201533 331.8617  27.1827 14.96022257321203
JILIN-1 04              
1 43022U 17074A   23301.52943032  .00008905  00000+0  46001-3 0  9992
2 43022  97.4980  30.4988 0006988  14.1185 346.0242 15.16505090327222
JILIN-1 05              
1 43023U 17074B   23301.54999559  .00008349  00000+0  42972-3 0  9995
2 43023  97.4996  30.9449 0007618  28.8488 331.3164 15.16650348327234
JILIN-1 06              
1 43024U 17074C   23301.52228643  .00005524  00000+0  29738-3 0  9990
2 43024  97.4990  30.4268 0010545  30.0737 330.1099 15.15194954327204
IRIDIUM 116             
1 43072U 17083C   23301.54896628  .00000178  00000+0  56473-4 0  9996
2 43072  86.4013   4.3383 0002318  94.8813 265.2647 14.34215246306191
IRIDIUM 130             
1 43073U 17083D   23301.58703059  .00000403  00000+0  13677-3 0  9995
2 43073  86.4023   4.5042 0002103  94.9403 265.2033 14.34216746306145
LKW-2                   
1 43080U 17084A   23301.54052381  .00011289  00000+0  47162-3 0  9995
2 43080  97.2592   5.1665 0008728  33.8804 326.2990 15.23750947325098
SUPERVIEW-1 03          
1 43099U 18002A   23301.54681784  .00016163  00000+0  61633-3 0  9996
2 43099  97.4001  17.9013 0005035 151.8984 208.2528 15.26754604321023
SUPERVIEW-1 04          
1 43100U 18002B   23301.51516743  .00016778  00000+0  63414-3 0  9999
2 43100  97.4018  18.1556 0001861  88.0495 272.0957 15.27050031321029
CARTOSAT-2F             
1 43111U 18004A   23301.54068408  .00007740  00000+0  37016-3 0  9994
2 43111  97.4669 359.2683 0002776  91.9292 268.2261 15.19264612321171
CARBONITE 2             
1 43115U 18004E   23301.43170776  .00012434  00000+0  37973-3 0  9996
2 43115  97.3019   9.3427 0008627  43.2240 316.9679 15.34001268322174
INS-1C                  
1 43116U 18004F   23301.50482722  .00447909  00000+0  16042-2 0  9994
2 43116  97.3191  28.1268 0005226 286.9850  73.0849 15.87714432323200
CORVUS BC3              
1 43118U 18004H   23301.45082365  .00040934  00000+0  82065-3 0  9995
2 43118  97.3148  16.2033 0005931  28.5124 331.6449 15.46586061322577
ARKYD 6A                
1 43130U 18004V   23301.16883022  .00083987  00000+0  10534-2 0  9992
2 43130  97.3164  21.8686 0003851 359.7821   0.3433 15.59456183322867
CNUSAIL-1               
1 43133U 18004Y   23301.46767690  .00063270  00000+0  94136-3 0  9994
2 43133  97.3169  20.6962 0003801  11.2913 348.8425 15.54932076322828
FOX-1D (AO-92)          
1 43137U 18004AC  23301.19280204  .00093028  00000+0  10673-2 0  9996
2 43137  97.3143  22.9403 0003026 356.9612   3.1627 15.61765940322943
CICERO 7                
1 43143U 18004AJ  23301.22573146  .00448906  78064-4  14877-2 0  9996
2 43143  97.3062  33.3969 0004847 292.6845  67.3916 15.90317405323584
LKW-3                   
1 43146U 18006A   23301.61824168  .00013656  00000+0  57205-3 0  9990
2 43146  97.5439  69.5665 0003118 174.7848 185.3421 15.23652287321894
ASNARO-2                
1 43152U 18007A   23301.53835708  .00013340  00000+0  57921-3 0  9996
2 43152  97.4190 306.3375 0001839  92.0293 268.1154 15.22439412320959
XIAOXIANG-2             
1 43155U 18008A   23301.54396524  .00035450  00000+0  11341-2 0  9990
2 43155  97.2808 351.2822 0011120 188.3494 171.7565 15.32272434319029
ZHOU ENLAI              
1 43156U 18008B   23301.54066281  .00040150  00000+0  12288-2 0  9999
2 43156  97.2854 351.6590 0008786 187.7599 172.3509 15.33682373318965
KIPP                    
1 43157U 18008C   23301.40418385  .00047802  00000+0  13134-2 0  9993
2 43157  97.2917 352.5947 0008114 190.2996 169.8084 15.37039002318943
QUANTUTONG 1            
1 43158U 18008D   23301.56396220  .00028141  00000+0  10132-2 0  9994
2 43158  97.2884 347.8601 0009113 192.5331 167.5684 15.28506920318757
JILIN-1 07              
1 43159U 18008E   23301.56521836  .00005942  00000+0  31711-3 0  9999
2 43159  97.2773 339.5239 0011055 218.0065 142.0389 15.15447506318307
JILIN-1 08              
1 43160U 18008F   23301.54067675  .00006406  00000+0  34381-3 0  9997
2 43160  97.2775 339.2915 0007365 231.1643 128.8933 15.15250123318298
LEMUR-2-URAMCHANSOL     
1 43183U 18014D   23301.55606588  .00015640  00000+0  10165-2 0  9995
2 43183  97.6013 202.6400 0016283  60.7366 299.5488 15.07988295313702
LEMUR-2-KADI            
1 43184U 18014E   23301.16507167  .00010780  00000+0  72343-3 0  9993
2 43184  97.5890 201.2411 0014311  51.6142 308.6369 15.06919798313603
S-NET D                 
1 43186U 18014G   23301.31209741  .00004903  00000+0  38114-3 0  9997
2 43186  97.6069 202.5238 0015287  85.0410 275.2560 15.01654957313528
S-NET B                 
1 43187U 18014H   23301.31360480  .00004933  00000+0  38341-3 0  9991
2 43187  97.6082 202.4547 0015827  81.9672 278.3348 15.01654225313527
S-NET A                 
1 43188U 18014J   23301.31348258  .00004938  00000+0  38380-3 0  9999
2 43188  97.6086 202.5511 0015752  82.3201 277.9812 15.01657570313521
S-NET C                 
1 43189U 18014K   23301.24961389  .00005189  00000+0  40285-3 0  9994
2 43189  97.6108 202.3839 0016829  76.5569 283.7530 15.01658297312063
GOMX-4B                 
1 43196U 18015E   23301.37957936  .00026834  00000+0  62169-3 0  9995
2 43196  97.5923  96.8730 0012689  87.2988 272.9711 15.42327685319433
GOMX-4A                 
1 43197U 18015F   23301.51580366  .00036152  00000+0  72382-3 0  9993
2 43197  97.5907  99.8831 0011847  79.6469 280.6115 15.46594908319651
PAZ                     
1 43215U 18020A   23301.44238905  .00003730  00000+0  18061-3 0  9991
2 43215  97.4456 306.6669 0001724  86.9439 273.1993 15.19168947314846
GOES 17                 
1 43226U 18022A   23301.52814167 -.00000093  00000+0  00000+0 0  9994
2 43226   0.0076  42.5339 0002025 167.9263 271.6284  1.00271473 20783
LKW-4                   
1 43236U 18025A   23301.31578257  .00011523  00000+0  49454-3 0  9991
2 43236  97.5326  67.4176 0002593 225.9825 134.1198 15.22872909312250
ZHUHAI-1 OHS-01         
1 43439U 18040A   23301.56003372  .00025419  00000+0  74630-3 0  9994
2 43439  97.1698 348.1811 0010968  73.1193 287.1252 15.35069311305705
ZHUHAI-1 OVS-02         
1 43440U 18040B   23301.53864674  .00024274  00000+0  72884-3 0  9990
2 43440  97.1739 348.4228 0010286  85.2956 274.9462 15.34377144305704
ZHUHAI-1 OHS-02         
1 43441U 18040C   23301.53886120  .00023954  00000+0  70844-3 0  9999
2 43441  97.1866 351.6249 0010665  97.4173 262.8283 15.34853878305713
ZHUHAI-1 OHS-04         
1 43443U 18040E   23301.54047907  .00026467  00000+0  78213-3 0  9994
2 43443  97.1768 349.2874 0006512  75.7479 284.4488 15.34895450305716
GAOFEN-6                
1 43484U 18048A   23301.52655007  .00001394  00000+0  20719-3 0  9991
2 43484  97.8888  16.6502 0010959  47.5170 312.6964 14.76488107291336
LUOJIA-1 01             
1 43485U 18048B   23301.51559438  .00003173  00000+0  42972-3 0  9994
2 43485  97.8975  19.3326 0011284  34.3976 325.7964 14.79616939291444
